[Satellite]
VERSION=1.1
NAME=HXMT (HUIYAN)
NICKNAME=HXMT (HUIYAN)
TLE1=1 42758U 17034A   22342.53682019  .00002711  00000+0  16985-3 0  9990
TLE2=2 42758  43.0157 110.2326 0011268 295.1778 116.0813 15.11551222302516
STATUS=0
